IRIDIUM 112             
1 41925U 17003J   25272.89696613  .00000451  00000+0  15390-3 0  9998
2 41925  86.4037 197.0255 0002112  90.0991 270.0447 14.34216869455961
IRIDIUM 111             
1 41926U 17003K   25272.88428530  .00000061  00000+0  14658-4 0  9993
2 41926  86.4033 197.0959 0002281  82.0366 278.1089 14.34217995455943
IRIDIUM 113             
1 42803U 17039A   25272.51540458  .00000147  00000+0  45567-4 0  9999
2 42803  86.3914  71.1206 0002366 100.1086 260.0376 14.34216139433828
IRIDIUM 123             
1 42804U 17039B   25272.97549443 -.00000001  00000+0 -72792-5 0  9995
2 42804  86.3917 102.4333 0002240  85.0889 275.0563 14.34218136432657
IRIDIUM 120             
1 42805U 17039C   25272.50906324  .00000011  00000+0 -31646-5 0  9993
2 42805  86.3916  70.9407 0001977  81.4714 278.6706 14.34217233433815
IRIDIUM 115             
1 42806U 17039D   25272.91993666  .00000329  00000+0  91899-4 0  9990
2 42806  86.4454  70.8614 0002727  82.6285 277.5226 14.43280325436723
IRIDIUM 118             
1 42807U 17039E   25272.93744065  .00000028  00000+0  27780-5 0  9995
2 42807  86.3913 102.4481 0001970  94.3627 265.7794 14.34217619432648
IRIDIUM 117             
1 42808U 17039F   25272.88669871  .00000407  00000+0  13830-3 0  9991
2 42808  86.3917 102.4300 0002347  88.0833 272.0632 14.34219933432666
